HAWK-5A                 
1 52757U 22057AB  26167.39874660  .00015835  00000+0  27063-3 0  9999
2 52757  97.6605 326.1948 0005641  81.4162 278.7728 15.51368934226222
HAWK-6B                 
1 55324U 23011A   26166.93713987  .00004419  00000+0  19252-3 0  9993
2 55324  40.4997 359.3629 0002525 351.4672   8.6094 15.22924458187659
HAWK-6C                 
1 55326U 23011C   26166.93647452  .00003833  00000+0  16810-3 0  9994
2 55326  40.4991 356.2052 0003492 342.6269  17.4420 15.22920976187662
HAWK-6A                 
1 55327U 23011D   26166.93652945  .00004263  00000+0  18602-3 0  9997
2 55327  40.4997 357.8300 0003191 339.9740  20.0944 15.22922068187666
HAWK-7A                 
1 56191U 23054P   26167.58625305  .00004570  00000+0  17328-3 0  9991
2 56191  97.2703  54.9390 0004386  58.8801 301.2868 15.27355764176932
HAWK-7B                 
1 56193U 23054R   26167.58616818  .00004487  00000+0  17020-3 0  9998
2 56193  97.2729  53.2027 0003766  69.7374 290.4270 15.27353548176932
HAWK-7C                 
1 56200U 23054Y   26167.58605767  .00004480  00000+0  16994-3 0  9990
2 56200  97.2705  53.9716 0003740  61.5296 298.6319 15.27355355176934
