OBJECT_NAME,OBJECT_ID,EPOCH,MEAN_MOTION,ECCENTRICITY,INCLINATION,RA_OF_ASC_NODE,ARG_OF_PERICENTER,MEAN_ANOMALY,EPHEMERIS_TYPE,CLASSIFICATION_TYPE,NORAD_CAT_ID,ELEMENT_SET_NO,REV_AT_EPOCH,BSTAR,MEAN_MOTION_DOT,MEAN_MOTION_DDOT
HAWK-5A,2022-057AB,2026-06-16T09:34:11.706240,15.51368934,.00056419,97.6605,326.1948,81.4162,278.7728,0,U,52757,999,22622,.27063122E-3,.15835E-3,0
HAWK-6B,2023-011A,2026-06-15T22:29:28.884768,15.22924458,.00025256,40.4997,359.3629,351.4672,8.6094,0,U,55324,999,18765,.19251519E-3,.4419E-4,0
HAWK-6C,2023-011C,2026-06-15T22:28:31.398528,15.22920976,.00034928,40.4991,356.2052,342.6269,17.4420,0,U,55326,999,18766,.16809969E-3,.3833E-4,0
HAWK-6A,2023-011D,2026-06-15T22:28:36.144480,15.22922068,.00031912,40.4997,357.8300,339.9740,20.0944,0,U,55327,999,18766,.18602049E-3,.4263E-4,0
HAWK-7A,2023-054P,2026-06-16T14:04:12.263520,15.27355764,.00043865,97.2703,54.9390,58.8801,301.2868,0,U,56191,999,17693,.1732763E-3,.457E-4,0
HAWK-7B,2023-054R,2026-06-16T14:04:04.930752,15.27353548,.00037668,97.2729,53.2027,69.7374,290.4270,0,U,56193,999,17693,.17020026E-3,.4487E-4,0
HAWK-7C,2023-054Y,2026-06-16T14:03:55.382688,15.27355355,.00037401,97.2705,53.9716,61.5296,298.6319,0,U,56200,999,17693,.16994432E-3,.448E-4,0
